COSMOS 1892             
1 18421U 87088A   20346.81427784  .00001133  00000-0  54966-4 0  9995
2 18421  82.5005  97.9964 0015375 164.7363 195.4337 15.17369070811442
SL-14 R/B               
1 18749U 88001B   20346.83598546  .00000109  00000-0  10381-4 0  9996
2 18749  82.5138 191.4114 0020246  74.9669 295.6623 14.83237772758168
COSMOS 1933             
1 18958U 88020A   20346.92755782  .00000889  00000-0  62610-4 0  9993
2 18958  82.5284 314.1995 0009866 268.8208  91.1888 15.03816681761757
SL-3 R/B                
1 19046U 88032B   20346.91385786  .00000585  00000-0  47493-4 0  9992
2 19046  97.3957   0.0299 0035780 323.6694  36.2103 15.02820425763615
SL-16 R/B               
1 19120U 88039B   20346.87364067  .00000244  00000-0  13900-3 0  9993
2 19120  71.0130 153.6276 0020748  29.8472 330.3832 14.19215382686828
COSMOS 1953             
1 19210U 88050A   20347.17851632  .00001214  00000-0  81019-4 0  9994
2 19210  82.5176 237.2933 0011711 229.5919 130.4287 15.06109396769547
SL-8 R/B                
1 19257U 88053B   20346.92569840  .00000069  00000-0  31927-4 0  9997
2 19257  74.0499  34.6600 0021262 326.7852 205.0553 14.37493519701503
COSMOS 1975             
1 19573U 88093A   20346.68449036  .00000238  00000-0  14759-4 0  9991
2 19573  82.5197 192.5032 0012662 279.4111  80.5684 15.05010067730166
SL-14 R/B               
1 19574U 88093B   20347.17370782  .00000110  00000-0  10483-4 0  9997
2 19574  82.5330  33.8639 0020337 233.5198 179.2002 14.83348925738306
SL-16 R/B               
1 19650U 88102B   20346.89408128  .00000278  00000-0  16580-3 0  9995
2 19650  70.9992 216.7874 0012838  37.2109 322.9901 14.15796072655990
INTERCOSMOS 24          
1 20261U 89080A   20346.88009212  .00000252  00000-0  67967-4 0  9999
2 20261  82.6052 265.4497 1203221  38.4514 329.6389 12.56155956426275
SL-14 R/B               
1 20262U 89080C   20346.93480319  .00000025  00000-0  57396-5 0  9991
2 20262  82.5930 320.2341 1235945 232.4347 115.8128 12.48953266421144
DELTA 2 R/B(1)          
1 20303U 89085B   20346.70614752  .00005293  00000-0  16664-3 0  9990
2 20303  35.6379 336.4551 0093794 312.7109  46.5751 15.28157883695720
DELTA 1 R/B             
1 20323U 89089B   20346.90740269  .00000052  00000-0  22519-4 0  9996
2 20323  97.1143 104.6098 0072500  33.8475 326.7318 14.48373870618559
ARIANE 40 R/B           
1 20443U 90005H   20346.79351401  .00000023  00000-0  22047-4 0  9996
2 20443  98.5554  48.1296 0010720 169.1516 190.9904 14.38109002617600
DELTA 2 R/B(1)          
1 20453U 90008B   20347.17306889  .00003360  00000-0  18675-3 0  9991
2 20453  35.6255 288.1239 0279078 348.5955  10.8530 14.85984981637647
COSMOS 2058             
1 20465U 90010A   20346.85740019  .00000454  00000-0  36028-4 0  9992
2 20465  82.4895 102.6374 0014481 327.7021  32.3314 14.98100163654888
SL-14 R/B               
1 20466U 90010B   20346.85165049  .00000088  00000-0  82181-5 0  9992
2 20466  82.5040 260.7436 0021944 113.0007 247.3525 14.81403175644993
SL-14 R/B               
1 20511U 90018B   20346.72752624  .00000104  00000-0  10652-4 0  9990
2 20511  82.5234 208.0418 0015966 255.5126 169.6281 14.80058699639338
HST                     
1 20580U 90037B   20347.09326333  .00000684  00000-0  30578-4 0  9994
2 20580  28.4688 224.6619 0002635 201.6182 278.8878 15.09509049482913
SL-16 R/B               
1 20625U 90046B   20346.77413450  .00000161  00000-0  10847-3 0  9991
2 20625  70.9997 356.0077 0015580 324.9951  35.0146 14.14664914577691
COSMOS 2084             
1 20663U 90055A   20346.91431871  .00000181  00000-0  35444-4 0  9999
2 20663  62.7951 295.6486 0041733 330.9905  28.8869 14.92160100649831
SL-6 R/B(2)             
1 20666U 90055D   20346.93713535  .00000098  00000-0  27310-4 0  9994
2 20666  62.7845 211.5666 0071823  12.1160 348.1639 14.92407954651789
SL-8 R/B                
1 20775U 90078B   20347.02201903  .00002628  00000-0  12636-3 0  9997
2 20775  82.9279  80.1474 0570795   4.5175 356.0854 14.35060224531196
SL-8 R/B                
1 21088U 91006B   20347.19434543 -.00000049  00000-0 -64585-4 0  9991
2 21088  82.9410 153.0855 0022427 356.6463 177.9817 13.77148558500949
OKEAN-3                 
1 21397U 91039A   20346.78986775  .00000412  00000-0  37080-4 0  9995
2 21397  82.5215   8.1246 0016334 298.6624  61.2953 14.93005799578724
COSMOS 2151             
1 21422U 91042A   20346.82903398  .00000242  00000-0  21249-4 0  9994
2 21422  82.5001 114.0752 0014195   6.7919 353.3490 14.92187893577335
SL-14 R/B               
1 21423U 91042B   20346.89326657  .00000100  00000-0  10134-4 0  9993
2 21423  82.4944 211.0627 0018608  41.7113 318.5515 14.79808601569905
ERS-1                   
1 21574U 91050A   20347.15688235  .00000033  00000-0  25673-4 0  9991
2 21574  98.6224 300.7749 0033918 117.6206 242.8431 14.37772067540635
ARIANE 40 R/B           
1 21610U 91050F   20346.83884323  .00000034  00000-0  24039-4 0  9998
2 21610  98.4476  54.1366 0004391  90.4754  28.0694 14.40926216543243
INTERCOSMOS 25          
1 21819U 91086A   20347.15294870  .00000170  00000-0  34781-4 0  9992
2 21819  82.5967  19.8920 1514928 253.3044  89.6845 12.05209948265700
SL-8 R/B                
1 21876U 92008B   20346.84712616  .00000032  00000-0  17078-4 0  9995
2 21876  82.9279 250.5567 0036157  78.8311 346.7017 13.75669648446268
SL-8 R/B                
1 21938U 92020B   20346.91800385  .00000121  00000-0  11029-3 0  9995
2 21938  82.9286 134.8255 0028254 236.9822 234.7137 13.75290079438062
COSMOS 2219             
1 22219U 92076A   20346.89589292  .00000036  00000-0  44124-4 0  9995
2 22219  71.0598  57.0366 0020247 245.5512 114.3499 14.13643341447897
SL-16 R/B               
1 22220U 92076B   20347.18852248 -.00000008  00000-0  20051-4 0  9997
2 22220  71.0002 257.4368 0011320 139.5017 325.1608 14.16461234451173
COSMOS 2221             
1 22236U 92080A   20346.89242594  .00000313  00000-0  31357-4 0  9992
2 22236  82.5074 295.9752 0018315  92.2407 268.0908 14.87984448495664
SL-16 R/B               
1 22285U 92093B   20346.73304489 -.00000006  00000-0  21285-4 0  9994
2 22285  71.0234  60.6003 0005530 320.7105  39.3616 14.15054620442415
COSMOS 2228             
1 22286U 92094A   20346.88578077  .00000269  00000-0  26413-4 0  9996
2 22286  82.5211 252.4313 0020214 208.3250 151.6871 14.88204878490833
SL-16 R/B               
1 22566U 93016B   20347.19382443  .00000289  00000-0  17382-3 0  9993
2 22566  71.0080 272.6531 0010708 343.4414  16.6357 14.14968235431485
COSMOS 2242             
1 22626U 93024A   20346.88084217  .00000264  00000-0  25929-4 0  9992
2 22626  82.5218 280.6331 0017974 207.7786 152.2473 14.88056220495248
SL-16 R/B               
1 22803U 93059B   20347.03522555  .00000169  00000-0  10798-3 0  9998
2 22803  70.9909  85.0274 0019389 248.4231 111.4826 14.16827857408713
ARIANE 40 R/B           
1 22830U 93061H   20346.91578626 -.00000008  00000-0  14111-4 0  9994
2 22830  98.7425  37.5484 0011419 157.3145 202.8545 14.31462278420218
COSMOS 2278             
1 23087U 94023A   20347.11888475  .00000216  00000-0  13907-3 0  9998
2 23087  71.0519 216.2999 0007025  67.4037 292.7828 14.13811664374551
SL-16 R/B               
1 23088U 94023B   20347.09119276 -.00000019  00000-0  15060-4 0  9997
2 23088  70.9969 128.2708 0004869 303.1440  56.9215 14.14679354375707
SL-16 R/B               
1 23343U 94074B   20346.91017162  .00000049  00000-0  14233-4 0  9991
2 23343  97.9759  38.1083 0005689 305.9753 226.9348 14.76851612404605
SL-16 R/B               
1 23405U 94077B   20346.89571412  .00000056  00000-0  53286-4 0  9992
2 23405  70.9839  57.3716 0003813 225.2414 134.8398 14.15223454345454
ERS-2                   
1 23560U 95021A   20346.78373318  .00001643  00000-0  72624-4 0  9997
2 23560  98.5533 164.7753 0002361 298.1348  61.9646 15.23512538369118
ARIANE 40+ R/B          
1 23561U 95021B   20347.16644769  .00000063  00000-0  35924-4 0  9999
2 23561  98.7028  28.8856 0008020  88.6521 339.1056 14.37998196344331
SL-16 R/B               
1 23705U 95058B   20346.93762565  .00000058  00000-0  54400-4 0  9992
2 23705  71.0226 236.5648 0011759 166.9662 193.1767 14.15144673297086
SL-16 R/B               
1 24298U 96051B   20347.12506766 -.00000149  00000-0 -54111-4 0  9997
2 24298  70.8401 255.9760 0013306  92.1901 268.0743 14.12484114251701
ORBVIEW 2 (SEASTAR)     
1 24883U 97037A   20346.89178167  .00000056  00000-0  36326-4 0  9998
2 24883  98.6268  99.4450 0001382 322.2199  37.8888 14.33585571234136
SL-16 R/B               
1 25400U 98043G   20346.88018672 -.00000016  00000-0  11513-4 0  9993
2 25400  98.6240 279.6459 0009975 171.6741 188.4606 14.25466374166290
SL-16 R/B               
1 25407U 98045B   20346.95747205 -.00000006  00000-0  21118-4 0  9992
2 25407  71.0119 244.5547 0005577  51.3891 308.7731 14.15834228156202
ISS (ZARYA)             
1 25544U 98067A   20347.38065972  .00001339  00000-0  32251-4 0  9999
2 25544  51.6440 186.7650 0001859 122.9504 239.1247 15.49179161259649
SL-8 R/B                
1 25723U 99022C   20344.37479744  .00063141  00000-0  27377-3 0  9993
2 25723  48.4089 118.1822 0001322 224.9194 135.1656 15.84155274205282
CZ-4B R/B               
1 25732U 99025C   20347.11612760 -.00000011  00000-0  16647-4 0  9995
2 25732  98.9267  16.9226 0038233  64.9415 359.3333 14.17685317117131
OKEAN-O                 
1 25860U 99039A   20347.11101337  .00000094  00000-0  21005-4 0  9999
2 25860  98.2020   9.0945 0001602  72.4971 287.6414 14.76698026151828
SL-16 R/B               
1 25861U 99039B   20346.90571162  .00000089  00000-0  19676-4 0  9998
2 25861  98.2094 352.5852 0014616 311.3081 110.7302 14.78608396153848
DELTA 2 R/B             
1 25876U 99041E   20347.19748517 -.00000134  00000-0  18681-4 0  9996
2 25876  51.7647 328.6301 0531448 142.4919 221.4358 14.04488231 93639
